1 43013U 17073A   26025.83228772  .00000162  00000+0  97663-4 0  9996
2 43013  98.7646 326.6579 0001036  23.5840 336.5383 14.19540376424273
